start=new Date('%Y-%m-57T00:00:00.000Z').valueOf();
sats=[{"MEAN_MOTION":"15.06722390","TIME_SYSTEM":"UTC","CENTER_NAME":"EARTH","ECCENTRICITY":"0.00016930","CLASSIFICATION_TYPE":"U","GP_ID":"183184062","PERIOD":"95.572","RA_OF_ASC_NODE":"259.5128","REF_FRAME":"TEME","SEMIMAJOR_AXIS":"6924.361","OBJECT_ID":"2020-025AG","FILE":"3100831","APOAPSIS":"547.398","PERIAPSIS":"545.053","MEAN_ANOMALY":"280.5267","TLE_LINE2":"2 45561  53.0592 259.5128 0001693  79.5913 280.5267 15.06722390 76167","EPHEMERIS_TYPE":"0","SITE":"AFETR","OBJECT_TYPE":"PAYLOAD","MEAN_MOTION_DDOT":"0.0000000000000","COUNTRY_CODE":"US","EPOCH":"2021-08-21T08:55:12.978336","TLE_LINE1":"1 45561U 20025AG  21233.37167799  .00001684  00000-0  13082-3 0  9996","LAUNCH_DATE":"2020-04-22","DECAY_DATE":null,"OBJECT_NAME":"STARLINK-1348","BSTAR":"0.00013082000000","MEAN_ELEMENT_THEORY":"SGP4","ARG_OF_PERICENTER":"79.5913","ELEMENT_SET_NO":"999","INCLINATION":"53.0592","NORAD_CAT_ID":"45561","RCS_SIZE":"LARGE","MEAN_MOTION_DOT":"0.00001684","REV_AT_EPOCH":"7616"},{"PERIAPSIS":"546.419","OBJECT_ID":"2020-025AH","FILE":"3100831","APOAPSIS":"548.036","TLE_LINE2":"2 45562  53.0551 344.1417 0001168 100.9941 259.1179 15.06395485 74985","EPHEMERIS_TYPE":"0","MEAN_ANOMALY":"259.1179","MEAN_MOTION_DDOT":"0.0000000000000","OBJECT_TYPE":"PAYLOAD","SITE":"AFETR","TLE_LINE1":"1 45562U 20025AH  21233.46869919 -.00000905  00000-0 -41906-4 0  9994","EPOCH":"2021-08-21T11:14:55.610016","COUNTRY_CODE":"US","CLASSIFICATION_TYPE":"U","MEAN_MOTION":"15.06395485","TIME_SYSTEM":"UTC","CENTER_NAME":"EARTH","ECCENTRICITY":"0.00011680","GP_ID":"183183813","RA_OF_ASC_NODE":"344.1417","PERIOD":"95.592","REF_FRAME":"TEME","SEMIMAJOR_AXIS":"6925.362","INCLINATION":"53.0551","NORAD_CAT_ID":"45562","ELEMENT_SET_NO":"999","MEAN_MOTION_DOT":"-0.00000905","RCS_SIZE":"LARGE","REV_AT_EPOCH":"7498","LAUNCH_DATE":"2020-04-22","DECAY_DATE":null,"MEAN_ELEMENT_THEORY":"SGP4","BSTAR":"-0.00004190600000","OBJECT_NAME":"STARLINK-1354","ARG_OF_PERICENTER":"100.9941"},{"EPHEMERIS_TYPE":"0","TLE_LINE2":"2 45563  53.0561 343.7724 0001073 104.9473 255.1635 15.06400490 74999","MEAN_ANOMALY":"255.1635","PERIAPSIS":"546.469","APOAPSIS":"547.955","FILE":"3100831","OBJECT_ID":"2020-025AJ","TLE_LINE1":"1 45563U 20025AJ  21233.54978741  .00001685  00000-0  13195-3 0  9990","EPOCH":"2021-08-21T13:11:41.632224","COUNTRY_CODE":"US","MEAN_MOTION_DDOT":"0.0000000000000","SITE":"AFETR","OBJECT_TYPE":"PAYLOAD","GP_ID":"183185064","CLASSIFICATION_TYPE":"U","ECCENTRICITY":"0.00010730","CENTER_NAME":"EARTH","TIME_SYSTEM":"UTC","MEAN_MOTION":"15.06400490","SEMIMAJOR_AXIS":"6925.347","REF_FRAME":"TEME","RA_OF_ASC_NODE":"343.7724","PERIOD":"95.592","RCS_SIZE":"LARGE","MEAN_MOTION_DOT":"0.00001685","NORAD_CAT_ID":"45563","INCLINATION":"53.0561","ELEMENT_SET_NO":"999","REV_AT_EPOCH":"7499","DECAY_DATE":null,"LAUNCH_DATE":"2020-04-22","ARG_OF_PERICENTER":"104.9473","MEAN_ELEMENT_THEORY":"SGP4","BSTAR":"0.00013195000000","OBJECT_NAME":"STARLINK-1355"},{"REF_FRAME":"TEME","SEMIMAJOR_AXIS":"6925.364","PERIOD":"95.592","RA_OF_ASC_NODE":"343.7938","GP_ID":"183184815","CLASSIFICATION_TYPE":"U","MEAN_MOTION":"15.06394971","TIME_SYSTEM":"UTC","ECCENTRICITY":"0.00008450","CENTER_NAME":"EARTH","TLE_LINE1":"1 45564U 20025AK  21233.54610254  .00000947  00000-0  82477-4 0  9993","EPOCH":"2021-08-21T13:06:23.259456","COUNTRY_CODE":"US","MEAN_MOTION_DDOT":"0.0000000000000","SITE":"AFETR","OBJECT_TYPE":"PAYLOAD","TLE_LINE2":"2 45564  53.0545 343.7938 0000845 116.9575 243.1500 15.06394971 74995","EPHEMERIS_TYPE":"0","MEAN_ANOMALY":"243.1500","PERIAPSIS":"546.644","OBJECT_ID":"2020-025AK","FILE":"3100831","APOAPSIS":"547.814","ARG_OF_PERICENTER":"116.9575","MEAN_ELEMENT_THEORY":"SGP4","OBJECT_NAME":"STARLINK-1356","BSTAR":"0.00008247700000","DECAY_DATE":null,"LAUNCH_DATE":"2020-04-22","REV_AT_EPOCH":"7499","RCS_SIZE":"LARGE","MEAN_MOTION_DOT":"0.00000947","INCLINATION":"53.0545","NORAD_CAT_ID":"45564","ELEMENT_SET_NO":"999"},{"LAUNCH_DATE":"2020-04-22","DECAY_DATE":null,"MEAN_ELEMENT_THEORY":"SGP4","OBJECT_NAME":"STARLINK-1357","BSTAR":"0.00011882000000","ARG_OF_PERICENTER":"108.6633","NORAD_CAT_ID":"45565","INCLINATION":"53.0554","ELEMENT_SET_NO":"999","MEAN_MOTION_DOT":"0.00001489","RCS_SIZE":"LARGE","REV_AT_EPOCH":"7499","CLASSIFICATION_TYPE":"U","ECCENTRICITY":"0.00009670","CENTER_NAME":"EARTH","MEAN_MOTION":"15.06401407","TIME_SYSTEM":"UTC","GP_ID":"183183563","RA_OF_ASC_NODE":"343.8258","PERIOD":"95.592","SEMIMAJOR_AXIS":"6925.344","REF_FRAME":"TEME","PERIAPSIS":"546.540","APOAPSIS":"547.879","FILE":"3100831","OBJECT_ID":"2020-025AL","EPHEMERIS_TYPE":"0","TLE_LINE2":"2 45565  53.0554 343.8258 0000967 108.6633 251.4461 15.06401407 74991","MEAN_ANOMALY":"251.4461","MEAN_MOTION_DDOT":"0.0000000000000","SITE":"AFETR","OBJECT_TYPE":"PAYLOAD","TLE_LINE1":"1 45565U 20025AL  21233.53872484  .00001489  00000-0  11882-3 0  9991","EPOCH":"2021-08-21T12:55:45.826176","COUNTRY_CODE":"US"},{"DECAY_DATE":null,"LAUNCH_DATE":"2020-04-22","ARG_OF_PERICENTER":"110.5943","MEAN_ELEMENT_THEORY":"SGP4","OBJECT_NAME":"STARLINK-1358","BSTAR":"-0.00008495000000","RCS_SIZE":"LARGE","MEAN_MOTION_DOT":"-0.00001546","NORAD_CAT_ID":"45566","INCLINATION":"53.0577","ELEMENT_SET_NO":"999","REV_AT_EPOCH":"7499","GP_ID":"183184313","CLASSIFICATION_TYPE":"U","CENTER_NAME":"EARTH","ECCENTRICITY":"0.00012020","MEAN_MOTION":"15.06395778","TIME_SYSTEM":"UTC","SEMIMAJOR_AXIS":"6925.361","REF_FRAME":"TEME","PERIOD":"95.592","RA_OF_ASC_NODE":"343.7491","EPHEMERIS_TYPE":"0","TLE_LINE2":"2 45566  53.0577 343.7491 0001202 110.5943 249.5175 15.06395778 74997","MEAN_ANOMALY":"249.5175","PERIAPSIS":"546.394","FILE":"3100831","APOAPSIS":"548.059","OBJECT_ID":"2020-025AM","TLE_LINE1":"1 45566U 20025AM  21233.55347699 -.00001546  00000-0 -84950-4 0  9992","EPOCH":"2021-08-21T13:17:00.411936","COUNTRY_CODE":"US","MEAN_MOTION_DDOT":"0.0000000000000","SITE":"AFETR","OBJECT_TYPE":"PAYLOAD"},{"EPOCH":"2021-08-21T13:32:55.993344","TLE_LINE1":"1 45567U 20025AN  21233.56453696  .00000319  00000-0  40327-4 0  9994","COUNTRY_CODE":"US","MEAN_MOTION_DDOT":"0.0000000000000","OBJECT_TYPE":"PAYLOAD","SITE":"AFETR","EPHEMERIS_TYPE":"0","TLE_LINE2":"2 45567  53.0548 343.7098 0001126 109.5623 250.5487 15.06388928 75007","MEAN_ANOMALY":"250.5487","PERIAPSIS":"546.468","FILE":"3100831","APOAPSIS":"548.027","OBJECT_ID":"2020-025AN","SEMIMAJOR_AXIS":"6925.382","REF_FRAME":"TEME","PERIOD":"95.593","RA_OF_ASC_NODE":"343.7098","GP_ID":"183184565","CLASSIFICATION_TYPE":"U","ECCENTRICITY":"0.00011260","CENTER_NAME":"EARTH","TIME_SYSTEM":"UTC","MEAN_MOTION":"15.06388928","REV_AT_EPOCH":"7500","MEAN_MOTION_DOT":"0.00000319","RCS_SIZE":"LARGE","NORAD_CAT_ID":"45567","INCLINATION":"53.0548","ELEMENT_SET_NO":"999","ARG_OF_PERICENTER":"109.5623","MEAN_ELEMENT_THEORY":"SGP4","BSTAR":"0.00004032700000","OBJECT_NAME":"STARLINK-1361","DECAY_DATE":null,"LAUNCH_DATE":"2020-04-22"},{"ELEMENT_SET_NO":"999","INCLINATION":"53.0554","NORAD_CAT_ID":"45568","MEAN_MOTION_DOT":"0.00000372","RCS_SIZE":"LARGE","REV_AT_EPOCH":"7498","LAUNCH_DATE":"2020-04-22","DECAY_DATE":null,"BSTAR":"0.00004387100000","OBJECT_NAME":"STARLINK-1363","MEAN_ELEMENT_THEORY":"SGP4","ARG_OF_PERICENTER":"103.6855","OBJECT_ID":"2020-025AP","FILE":"3100831","APOAPSIS":"548.026","PERIAPSIS":"546.427","MEAN_ANOMALY":"256.4263","TLE_LINE2":"2 45568  53.0554 344.0453 0001154 103.6855 256.4263 15.06395753 74984","EPHEMERIS_TYPE":"0","OBJECT_TYPE":"PAYLOAD","SITE":"AFETR","MEAN_MOTION_DDOT":"0.0000000000000","COUNTRY_CODE":"US","EPOCH":"2021-08-21T11:45:24.819840","TLE_LINE1":"1 45568U 20025AP  21233.48987060  .00000372  00000-0  43871-4 0  9999","MEAN_MOTION":"15.06395753","TIME_SYSTEM":"UTC","ECCENTRICITY":"0.00011540","CENTER_NAME":"EARTH","CLASSIFICATION_TYPE":"U","GP_ID":"183185315","PERIOD":"95.592","RA_OF_ASC_NODE":"344.0453","REF_FRAME":"TEME","SEMIMAJOR_AXIS":"6925.362"},{"LAUNCH_DATE":"2020-04-22","DECAY_DATE":null,"MEAN_ELEMENT_THEORY":"SGP4","BSTAR":"-0.00002599700000","OBJECT_NAME":"STARLINK-1366","ARG_OF_PERICENTER":"110.3165","INCLINATION":"53.0554","NORAD_CAT_ID":"45569","ELEMENT_SET_NO":"999","MEAN_MOTION_DOT":"-0.00000669","RCS_SIZE":"LARGE","REV_AT_EPOCH":"7499","CLASSIFICATION_TYPE":"U","MEAN_MOTION":"15.06393958","TIME_SYSTEM":"UTC","CENTER_NAME":"EARTH","ECCENTRICITY":"0.00013260","GP_ID":"183184063","PERIOD":"95.593","RA_OF_ASC_NODE":"343.6908","REF_FRAME":"TEME","SEMIMAJOR_AXIS":"6925.367","PERIAPSIS":"546.314","OBJECT_ID":"2020-025AQ","FILE":"3100831","APOAPSIS":"548.150","TLE_LINE2":"2 45569  53.0554 343.6908 0001326 110.3165 249.7967 15.06393958 74997","EPHEMERIS_TYPE":"0","MEAN_ANOMALY":"249.7967","MEAN_MOTION_DDOT":"0.0000000000000","OBJECT_TYPE":"PAYLOAD","SITE":"AFETR","EPOCH":"2021-08-21T13:38:14.164800","TLE_LINE1":"1 45569U 20025AQ  21233.56821950 -.00000669  00000-0 -25997-4 0  9994","COUNTRY_CODE":"US"},{"REV_AT_EPOCH":"7498","ELEMENT_SET_NO":"999","INCLINATION":"53.0551","NORAD_CAT_ID":"45570","RCS_SIZE":"LARGE","MEAN_MOTION_DOT":"0.00001050","BSTAR":"0.00008933200000","OBJECT_NAME":"STARLINK-1376","MEAN_ELEMENT_THEORY":"SGP4","ARG_OF_PERICENTER":"103.6689","LAUNCH_DATE":"2020-04-22","DECAY_DATE":null,"OBJECT_TYPE":"PAYLOAD","SITE":"AFETR","MEAN_MOTION_DDOT":"0.0000000000000","COUNTRY_CODE":"US","EPOCH":"2021-08-21T11:52:03.642240","TLE_LINE1":"1 45570U 20025AR  21233.49448660  .00001050  00000-0  89332-4 0  9997","OBJECT_ID":"2020-025AR","APOAPSIS":"548.148","FILE":"3100831","PERIAPSIS":"546.257","MEAN_ANOMALY":"256.4452","TLE_LINE2":"2 45570  53.0551 344.0245 0001365 103.6689 256.4452 15.06403666 74985","EPHEMERIS_TYPE":"0","PERIOD":"95.592","RA_OF_ASC_NODE":"344.0245","REF_FRAME":"TEME","SEMIMAJOR_AXIS":"6925.337","MEAN_MOTION":"15.06403666","TIME_SYSTEM":"UTC","ECCENTRICITY":"0.00013650","CENTER_NAME":"EARTH","CLASSIFICATION_TYPE":"U","GP_ID":"183183814"}];
